H1 CPF 01  gfz 2021 02 04 13  5352 tandemx   
H2 1003001  6202 36605    2021 02 04 12 59 42 2021 02 09 00 00 42   120 1 1  0 0 0
H9
10 0 59250  10062.000000  0   -2462214.746  -3798113.749  -5200642.350
10 0 59250  10182.000000  0   -2993683.436  -4205120.060  -4569866.944
10 0 59250  10302.000000  0   -3479506.184  -4530110.613  -3859070.510
10 0 59250  10422.000000  0   -3909691.222  -4768233.709  -3080625.066
10 0 59250  10542.000000  0   -4275129.126  -4916308.411  -2248118.827
10 0 59250  10662.000000  0   -4567789.118  -4972872.297  -1376122.195
10 0 59250  10782.000000  0   -4780897.998  -4938195.667   -479932.142
10 0 59250  10902.000000  0   -4909096.831  -4814261.300    424700.270
10 0 59250  11022.000000  0   -4948571.161  -4604709.558   1321854.230
10 0 59250  11142.000000  0   -4897150.251  -4314748.731   2195729.062
10 0 59250  11262.000000  0   -4754372.594  -3951033.309   3030931.579
10 0 59250  11382.000000  0   -4521516.745  -3521513.924   3812754.759
10 0 59250  11502.000000  0   -4201596.771  -3035262.973   4527442.718
10 0 59250  11622.000000  0   -3799321.466  -2502279.409   5162435.375
10 0 59250  11742.000000  0   -3321020.697  -1933279.852   5706587.331
10 0 59250  11862.000000  0   -2774541.214  -1339481.008   6150360.689
10 0 59250  11982.000000  0   -2169112.478   -732375.827   6485988.860
10 0 59250  12102.000000  0   -1515185.047   -123508.117   6707606.689
10 0 59250  12222.000000  0    -824246.350    475746.571   6811345.184
10 0 59250  12342.000000  0    -108618.646   1054391.906   6795394.729
10 0 59250  12462.000000  0     618760.379   1602012.118   6660035.001
10 0 59250  12582.000000  0    1344571.083   2108959.679   6407630.419
10 0 59250  12702.000000  0    2055355.027   2566525.226   6042590.628
10 0 59250  12822.000000  0    2737763.992   2967087.986   5571298.825
10 0 59250  12942.000000  0    3378812.684   3304245.702   5002007.004
10 0 59250  13062.000000  0    3966129.299   3572920.406   4344695.938
10 0 59250  13182.000000  0    4488196.917   3769437.219   3610905.792
10 0 59250  13302.000000  0    4934587.910   3891577.739   2813537.714
10 0 59250  13422.000000  0    5296178.032   3938601.988   1966624.283
10 0 59250  13542.000000  0    5565338.082   3911240.024   1085079.910
10 0 59250  13662.000000  0    5736097.988   3811653.720    184431.555
10 0 59250  13782.000000  0    5804278.313   3643368.373   -719463.540
10 0 59250  13902.000000  0    5767585.443   3411176.406  -1610705.850
10 0 59250  14022.000000  0    5625668.758   3121015.531  -2473641.341
10 0 59250  14142.000000  0    5380138.154   2779825.351  -3293142.181
10 0 59250  14262.000000  0    5034543.595   2395386.211  -4054875.030
10 0 59250  14382.000000  0    4594316.381   1976143.884  -4745553.059
10 0 59250  14502.000000  0    4066672.426   1531024.097  -5353163.284
10 0 59250  14622.000000  0    3460484.637   1069243.805  -5867167.201
10 0 59250  14742.000000  0    2786125.683    600122.405  -6278674.000
10 0 59250  14862.000000  0    2055284.363    132896.395  -6580582.673
10 0 59250  14982.000000  0    1280761.549   -323458.211  -6767692.900
10 0 59250  15102.000000  0     476247.692   -760394.302  -6836786.683
10 0 59250  15222.000000  0    -343916.519  -1169949.590  -6786676.526
10 0 59250  15342.000000  0   -1164989.022  -1544887.195  -6618222.750
10 0 59250  15462.000000  0   -1972085.003  -1878820.499  -6334321.313
10 0 59250  15582.000000  0   -2750440.910  -2166320.395  -5939858.850
10 0 59250  15702.000000  0   -3485678.780  -2403002.826  -5441637.515
10 0 59250  15822.000000  0   -4164070.661  -2585597.108  -4848270.227
10 0 59250  15942.000000  0   -4772797.739  -2711992.349  -4170042.971
10 0 59250  16062.000000  0   -5300197.462  -2781260.695  -3418746.802
10 0 59250  16182.000000  0   -5735995.129  -2793656.975  -2607481.095
10 0 59250  16302.000000  0   -6071513.772  -2750593.841  -1750429.617
10 0 59250  16422.000000  0   -6299856.553  -2654593.042   -862613.593
10 0 59250  16542.000000  0   -6416057.158  -2509213.107     40374.496
10 0 59250  16662.000000  0   -6417193.366  -2318955.000    942650.527
10 0 59250  16782.000000  0   -6302460.886  -2089147.880   1828326.896
10 0 59250  16902.000000  0   -6073202.839  -1825817.761   2681802.260
10 0 59250  17022.000000  0   -5732895.837  -1535542.471   3488044.094
10 0 59250  17142.000000  0   -5287094.127  -1225296.804   4232861.269
10 0 59250  17262.000000  0   -4743329.440   -902291.300   4903158.015
10 0 59250  17382.000000  0   -4110974.703   -573810.144   5487163.046
10 0 59250  17502.000000  0   -3401074.642   -247051.395   5974634.698
10 0 59250  17622.000000  0   -2626144.090     71027.889   6357037.021
10 0 59250  17742.000000  0   -1799939.879    373856.655   6627683.237
10 0 59250  17862.000000  0    -937211.878    655382.167   6781846.420
10 0 59250  17982.000000  0     -53437.812    910189.167   6816836.554
10 0 59250  18102.000000  0     835454.095   1133602.795   6732044.039
10 0 59250  18222.000000  0    1713371.160   1321774.319   6528949.812
10 0 59250  18342.000000  0    2564346.724   1471747.794   6211100.878
10 0 59250  18462.000000  0    3372830.516   1581506.473   5784052.877
10 0 59250  18582.000000  0    4123975.693   1649998.527   5255278.246
10 0 59250  18702.000000  0    4803914.537   1677141.786   4634041.204
10 0 59250  18822.000000  0    5400021.542   1663808.198   3931243.109
10 0 59250  18942.000000  0    5901158.756   1611786.846   3159233.582
10 0 59250  19062.000000  0    6297891.747   1523726.540   2331593.118
10 0 59250  19182.000000  0    6582677.122   1403058.643   1462893.376
10 0 59250  19302.000000  0    6750013.718   1253902.971    568434.596
10 0 59250  19422.000000  0    6796553.583   1080958.522   -336030.821
10 0 59250  19542.000000  0    6721170.679    889381.628  -1234585.318
10 0 59250  19662.000000  0    6524982.601    684654.147  -2111435.064
10 0 59250  19782.000000  0    6211328.579    472445.478  -2951194.218
10 0 59250  19902.000000  0    5785703.373    258473.054  -3739159.897
10 0 59250  20022.000000  0    5255649.205     48364.043  -4461571.755
10 0 59250  20142.000000  0    4630607.969   -152478.230  -5105849.714
10 0 59250  20262.000000  0    3921740.979   -338999.568  -5660805.623
10 0 59250  20382.000000  0    3141720.819   -506609.650  -6116828.841
10 0 59250  20502.000000  0    2304497.570   -651284.408  -6466042.672
10 0 59250  20622.000000  0    1425045.982   -769653.096  -6702427.881
10 0 59250  20742.000000  0     519099.536   -859070.146  -6821916.522
10 0 59250  20862.000000  0    -397127.650   -917669.347  -6822454.584
10 0 59250  20982.000000  0   -1307224.237   -944400.184  -6704032.601
10 0 59250  21102.000000  0   -2194868.804   -939046.199  -6468686.392
10 0 59250  21222.000000  0   -3044116.127   -902224.637  -6120464.669
10 0 59250  21342.000000  0   -3839676.937   -835368.001  -5665367.004
10 0 59250  21462.000000  0   -4567192.249   -740687.515  -5111252.302
10 0 59250  21582.000000  0   -5213495.068   -621118.541  -4467714.052
10 0 59250  21702.000000  0   -5766854.516   -480249.640  -3745925.884
10 0 59250  21822.000000  0   -6217199.268   -322235.629  -2958457.269
10 0 59250  21942.000000  0   -6556312.792   -151695.884  -2119060.575
10 0 59250  22062.000000  0   -6777996.866     26398.872  -1242434.213
10 0 59250  22182.000000  0   -6878198.674    206850.518   -343963.098
10 0 59250  22302.000000  0   -6855093.608    384363.649    560558.040
10 0 59250  22422.000000  0   -6709124.363    553679.271   1455208.583
10 0 59250  22542.000000  0   -6442996.140    709708.165   2324230.877
10 0 59250  22662.000000  0   -6061625.446    847660.786   3152317.289
10 0 59250  22782.000000  0   -5572043.442    963170.315   3924888.055
10 0 59250  22902.000000  0   -4983257.321   1052405.484   4628352.845
10 0 59250  23022.000000  0   -4306074.524   1112170.470   5250351.521
10 0 59250  23142.000000  0   -3552894.696   1139989.406   5779969.600
10 0 59250  23262.000000  0   -2737474.357   1134174.139   6207926.774
10 0 59250  23382.000000  0   -1874668.251   1093873.624   6526735.477
10 0 59250  23502.000000  0    -980152.259   1019104.608   6730825.618
10 0 59250  23622.000000  0     -70136.104    910762.146   6816634.814
10 0 59250  23742.000000  0     838930.010    770610.309   6782666.130
10 0 59250  23862.000000  0    1730651.525    601253.491   6629512.479
10 0 59250  23982.000000  0    2588983.966    406088.647   6359847.147
10 0 59250  24102.000000  0    3398521.659    189238.920   5978381.164
10 0 59250  24222.000000  0    4144776.808    -44530.641   5491785.975
10 0 59250  24342.000000  0    4814442.755   -289913.633   4908582.518
10 0 59250  24462.000000  0    5395637.688   -541177.156   4238997.804
10 0 59250  24582.000000  0    5878124.105   -792289.293   3494790.436
10 0 59250  24702.000000  0    6253499.846  -1037056.221   2689046.398
10 0 59250  24822.000000  0    6515354.340  -1269265.858   1835947.442
10 0 59250  24942.000000  0    6659385.642  -1482833.896    950517.384
10 0 59250  25062.000000  0    6683477.176  -1671950.546     48352.028
10 0 59250  25182.000000  0    6587730.713  -1831223.410   -854664.983
10 0 59250  25302.000000  0    6374452.775  -1955811.125  -1742650.840
10 0 59250  25422.000000  0    6048097.503  -2041546.212  -2600011.450
10 0 59250  25542.000000  0    5615165.925  -2085043.047  -3411721.244
10 0 59250  25662.000000  0    5084066.540  -2083788.683  -4163588.714
10 0 59250  25782.000000  0    4464941.755  -2036214.636  -4842503.671
10 0 59250  25902.000000  0    3769463.390  -1941748.580  -5436661.940
10 0 59250  26022.000000  0    3010602.587  -1800844.801  -5935762.204
10 0 59250  26142.000000  0    2202382.317  -1614992.762  -6331173.356
10 0 59250  26262.000000  0    1359616.330  -1386704.250  -6616073.825
10 0 59250  26382.000000  0     497637.327  -1119479.600  -6785558.231
10 0 59250  26502.000000  0    -367978.152   -817754.403  -6836712.500
99
